{"type":"FeatureCollection","features":[{"type":"Feature","properties":{"name":"Barking and Dagenham"},"geometry":{"type":"Polygon","coordinates":[[[0.19026,51.5527],[0.18598,51.54735],[0.16452,51.52708],[0.15802,51.50878],[0.12908,51.51554],[0.09978,51.51192],[0.09987,51.5145],[0.09495,51.51707],[0.09267,51.5257],[0.07288,51.52928],[0.06678,51.54052],[0.06839,51.54444],[0.07801,51.54411],[0.09261,51.54963],[0.09354,51.54581],[0.11193,51.55263],[0.11481,51.55533],[0.1134,51.55734],[0.11901,51.55737],[0.12056,51.55856],[0.11755,51.55918],[0.11911,51.56309],[0.12942,51.56647],[0.13163,51.57186],[0.12931,51.57632],[0.13359,51.57999],[0.12771,51.58166],[0.12648,51.58673],[0.13109,51.58753],[0.12961,51.59008],[0.14665,51.59948],[0.15111,51.59558],[0.15128,51.58915],[0.14711,51.5764],[0.14983,51.56972],[0.14684,51.56879],[0.16193,51.56162],[0.17347,51.56512],[0.18522,51.56555],[0.1827,51.56133],[0.19026,51.5527]]]}},{"type":"Feature","properties":{"name":"Barnet"},"geometry":{"type":"Polygon","coordinates":[[[-0.27371,51.63871],[-0.27282,51.6421],[-0.2632,51.64485],[-0.25732,51.64187],[-0.25187,51.64725],[-0.25057,51.65609],[-0.22891,51.66001],[-0.22645,51.6572],[-0.20785,51.6629],[-0.21112,51.66699],[-0.20221,51.66784],[-0.20334,51.67016],[-0.19985,51.67021],[-0.19899,51.66824],[-0.19483,51.66834],[-0.19663,51.66553],[-0.19099,51.66398],[-0.18777,51.66792],[-0.18207,51.66864],[-0.18585,51.66287],[-0.15474,51.65557],[-0.14987,51.64883],[-0.15223,51.64802],[-0.15171,51.6454],[-0.1291,51.6323],[-0.13535,51.62182],[-0.14449,51.61552],[-0.13874,51.61022],[-0.1434,51.60888],[-0.14198,51.60382],[-0.14445,51.60016],[-0.15134,51.59748],[-0.15673,51.60495],[-0.16174,51.59751],[-0.15865,51.59208],[-0.16023,51.58801],[-0.15713,51.58623],[-0.16572,51.58328],[-0.16944,51.57401],[-0.17426,51.56933],[-0.17804,51.57046],[-0.18921,51.56554],[-0.19087,51.56181],[-0.1969,51.56063],[-0.19937,51.55622],[-0.21343,51.55518],[-0.23341,51.57201],[-0.24601,51.57222],[-0.24732,51.56845],[-0.25126,51.57039],[-0.25436,51.58149],[-0.24825,51.5844],[-0.30557,51.63416],[-0.30397,51.63651],[-0.27371,51.63871]]]}},{"type":"Feature","properties":{"name":"Bexley"},"geometry":{"type":"Polygon","coordinates":[[[0.13418,51.51493],[0.16997,51.50558],[0.17503,51.50117],[0.1801,51.48897],[0.18553,51.48529],[0.21264,51.48579],[0.22376,51.48228],[0.21162,51.4751],[0.20886,51.47097],[0.21153,51.46838],[0.21067,51.46249],[0.20332,51.45876],[0.2034,51.45434],[0.19307,51.45171],[0.18433,51.44466],[0.17607,51.44201],[0.1729,51.44325],[0.16438,51.42859],[0.15592,51.43088],[0.1512,51.42044],[0.15468,51.41848],[0.1511,51.41762],[0.1492,51.41244],[0.15382,51.41127],[0.15298,51.40871],[0.12963,51.4149],[0.10766,51.41413],[0.09294,51.42148],[0.08303,51.43008],[0.0747,51.4322],[0.07651,51.43488],[0.07503,51.43593],[0.08448,51.44202],[0.08288,51.4433],[0.08745,51.44326],[0.08577,51.45647],[0.0787,51.45927],[0.08294,51.45985],[0.08232,51.46663],[0.09834,51.47546],[0.10829,51.47614],[0.11205,51.47309],[0.11856,51.47891],[0.12423,51.47684],[0.12152,51.48765],[0.12061,51.51106],[0.11837,51.5136],[0.13418,51.51493]]]}},{"type":"Feature","properties":{"name":"Brent"},"geometry":{"type":"Polygon","coordinates":[[[-0.24825,51.5844],[-0.25435,51.58154],[-0.25132,51.57317],[-0.25264,51.57162],[-0.24732,51.56845],[-0.24601,51.57222],[-0.2354,51.5726],[-0.22567,51.56607],[-0.19145,51.53631],[-0.19653,51.52768],[-0.20285,51.53294],[-0.21517,51.53141],[-0.21599,51.52795],[-0.25778,51.53536],[-0.26899,51.52976],[-0.28568,51.52922],[-0.28936,51.53169],[-0.27785,51.53501],[-0.28254,51.53865],[-0.30271,51.53201],[-0.30748,51.53309],[-0.3047,51.53989],[-0.30855,51.54327],[-0.30782,51.54597],[-0.31856,51.55186],[-0.33556,51.55661],[-0.32823,51.56254],[-0.32972,51.56712],[-0.32213,51.56968],[-0.32665,51.5788],[-0.30482,51.58709],[-0.28248,51.58511],[-0.28462,51.59104],[-0.29039,51.5936],[-0.26712,51.6004],[-0.24825,51.5844]]]}},{"type":"Feature","properties":{"name":"Bromley"},"geometry":{"type":"Polygon","coordinates":[[[-0.00796,51.35531],[-0.02375,51.36542],[-0.02357,51.37218],[-0.02677,51.37938],[-0.0369,51.37701],[-0.03648,51.38847],[-0.05346,51.39493],[-0.0503,51.398],[-0.05294,51.40147],[-0.06054,51.39913],[-0.06816,51.40352],[-0.07316,51.4091],[-0.07276,51.41268],[-0.08053,51.41567],[-0.07487,51.42577],[-0.04594,51.42245],[-0.03032,51.42573],[-0.02091,51.42093],[-0.02179,51.4165],[-0.01049,51.41356],[0.00178,51.41857],[0.00355,51.41741],[0.00813,51.42305],[0.02518,51.429],[0.03624,51.42237],[0.03902,51.42489],[0.03773,51.43339],[0.03122,51.43208],[0.0287,51.43643],[0.0249,51.43721],[0.02875,51.43876],[0.03037,51.44435],[0.04234,51.43949],[0.05869,51.42456],[0.06326,51.42421],[0.07538,51.43204],[0.08303,51.43008],[0.09294,51.42148],[0.10766,51.41413],[0.12963,51.4149],[0.14895,51.40849],[0.15529,51.40398],[0.16243,51.39249],[0.14778,51.3928],[0.14988,51.39088],[0.14966,51.38009],[0.15328,51.37804],[0.14964,51.37358],[0.1521,51.36969],[0.14729,51.36697],[0.14456,51.36117],[0.14516,51.35576],[0.13948,51.34698],[0.13624,51.34593],[0.137,51.34417],[0.12525,51.34587],[0.11849,51.34415],[0.11672,51.3413],[0.12172,51.33363],[0.11794,51.32966],[0.11425,51.32739],[0.10494,51.32741],[0.08506,51.31602],[0.08491,51.30604],[0.08285,51.30563],[0.09122,51.29682],[0.08331,51.29225],[0.05854,51.28935],[0.05082,51.29398],[0.04242,51.29267],[0.04433,51.29858],[0.04233,51.30192],[0.03293,51.30752],[0.02486,51.30215],[0.01913,51.29168],[0.01503,51.29178],[0.00841,51.31036],[0.01037,51.31614],[0.0066,51.31565],[0.00227,51.32932],[0.00333,51.33215],[0.00089,51.33359],[-0.00796,51.35531]]]}},{"type":"Feature","properties":{"name":"Camden"},"geometry":{"type":"Polygon","coordinates":[[[-0.14237,51.5693],[-0.14089,51.56024],[-0.12704,51.54748],[-0.12248,51.53738],[-0.12251,51.53075],[-0.11601,51.5299],[-0.11357,51.52456],[-0.107,51.52218],[-0.1053,51.51856],[-0.11377,51.51824],[-0.11156,51.51536],[-0.12285,51.51517],[-0.12756,51.51267],[-0.13079,51.51712],[-0.14715,51.52506],[-0.15269,51.53754],[-0.16492,51.5358],[-0.17873,51.53981],[-0.18874,51.53455],[-0.21343,51.55518],[-0.19937,51.55622],[-0.1969,51.56063],[-0.19087,51.56181],[-0.18921,51.56554],[-0.17804,51.57046],[-0.17426,51.56933],[-0.16987,51.5728],[-0.14237,51.5693]]]}},{"type":"Feature","properties":{"name":"City of London"},"geometry":{"type":"Polygon","coordinates":[[[-0.07842,51.52153],[-0.07938,51.51887],[-0.07361,51.51415],[-0.07269,51.51019],[-0.07686,51.51049],[-0.08015,51.50687],[-0.10155,51.5098],[-0.10466,51.50841],[-0.11142,51.50976],[-0.1138,51.51814],[-0.0976,51.52071],[-0.09673,51.52327],[-0.08675,51.51892],[-0.07842,51.52153]]]}},{"type":"Feature","properties":{"name":"Croydon"},"geometry":{"type":"Polygon","coordinates":[[[0.0,51.32889],[-0.00846,51.33389],[-0.01431,51.3298],[-0.02235,51.33821],[-0.03787,51.33871],[-0.04195,51.33381],[-0.05024,51.33264],[-0.04785,51.32524],[-0.05129,51.32245],[-0.06407,51.3186],[-0.07001,51.31889],[-0.071,51.32123],[-0.07885,51.31977],[-0.08474,51.31588],[-0.08192,51.31065],[-0.08881,51.30722],[-0.09116,51.30147],[-0.09737,51.30111],[-0.09427,51.29944],[-0.11481,51.29243],[-0.11777,51.28709],[-0.12428,51.28675],[-0.13731,51.30078],[-0.15531,51.30127],[-0.15773,51.30443],[-0.1545,51.30645],[-0.15716,51.30671],[-0.15434,51.31025],[-0.15832,51.31099],[-0.15719,51.31342],[-0.16187,51.31963],[-0.1455,51.32353],[-0.14442,51.32648],[-0.1493,51.32877],[-0.14403,51.33067],[-0.14751,51.33878],[-0.14343,51.34056],[-0.14417,51.34227],[-0.13255,51.34426],[-0.1283,51.34744],[-0.12689,51.34487],[-0.11688,51.34576],[-0.12139,51.35773],[-0.12468,51.35884],[-0.12187,51.35906],[-0.12095,51.36329],[-0.12403,51.36528],[-0.12206,51.36626],[-0.12474,51.37365],[-0.12787,51.3747],[-0.12591,51.37558],[-0.13029,51.38221],[-0.1288,51.38571],[-0.13437,51.39084],[-0.12418,51.39761],[-0.13124,51.4041],[-0.13205,51.40918],[-0.11267,51.42324],[-0.07862,51.41983],[-0.0806,51.41577],[-0.07276,51.41268],[-0.07316,51.4091],[-0.06816,51.40352],[-0.06054,51.39913],[-0.05294,51.40147],[-0.0503,51.398],[-0.05346,51.39493],[-0.03648,51.38847],[-0.0369,51.37701],[-0.02677,51.37938],[-0.02357,51.37218],[-0.02375,51.36542],[-0.0049,51.35211],[0.00089,51.33359],[0.00333,51.33215],[0.0,51.32889]]]}},{"type":"Feature","properties":{"name":"Ealing"},"geometry":{"type":"Polygon","coordinates":[[[-0.37893,51.55427],[-0.37584,51.55309],[-0.34753,51.55971],[-0.31257,51.54918],[-0.30714,51.54538],[-0.30855,51.54327],[-0.3047,51.53989],[-0.30744,51.53308],[-0.30271,51.53201],[-0.28254,51.53865],[-0.27785,51.53501],[-0.28936,51.53169],[-0.28568,51.52922],[-0.26899,51.52976],[-0.25778,51.53536],[-0.2472,51.5335],[-0.24527,51.53132],[-0.25268,51.52464],[-0.24568,51.50468],[-0.25504,51.50432],[-0.25275,51.5001],[-0.25541,51.49493],[-0.27002,51.49425],[-0.28076,51.50287],[-0.30069,51.49937],[-0.29762,51.49495],[-0.30587,51.49623],[-0.30546,51.49459],[-0.31198,51.49203],[-0.31586,51.49593],[-0.31915,51.49429],[-0.3421,51.49606],[-0.35052,51.49914],[-0.36294,51.49595],[-0.37183,51.49052],[-0.37764,51.49665],[-0.38709,51.49471],[-0.40689,51.49972],[-0.39339,51.50716],[-0.38999,51.514],[-0.37614,51.52493],[-0.37615,51.52882],[-0.41184,51.53415],[-0.41758,51.53677],[-0.41949,51.54034],[-0.39529,51.54263],[-0.39872,51.54799],[-0.37893,51.55427]]]}},{"type":"Feature","properties":{"name":"Enfield"},"geometry":{"type":"Polygon","coordinates":[[[-0.01214,51.68092],[-0.01029,51.67667],[-0.01144,51.66378],[-0.00889,51.66044],[-0.01328,51.63965],[-0.0257,51.62202],[-0.03507,51.61354],[-0.03417,51.6091],[-0.04139,51.60567],[-0.05432,51.60889],[-0.11747,51.60823],[-0.13874,51.61022],[-0.14449,51.61552],[-0.13535,51.62182],[-0.1291,51.6323],[-0.15171,51.6454],[-0.15223,51.64802],[-0.14987,51.64883],[-0.15474,51.65557],[-0.18585,51.66287],[-0.18207,51.66864],[-0.17699,51.67272],[-0.17245,51.67313],[-0.16359,51.68244],[-0.16347,51.68815],[-0.14935,51.68556],[-0.10482,51.69189],[-0.08388,51.69],[-0.06199,51.68305],[-0.04915,51.68431],[-0.01214,51.68092]]]}},{"type":"Feature","properties":{"name":"Greenwich"},"geometry":{"type":"Polygon","coordinates":[[[0.06177,51.42374],[0.03996,51.441],[0.03037,51.44435],[0.02894,51.44163],[0.02162,51.44271],[0.02199,51.44897],[0.01512,51.45004],[0.0199,51.45074],[0.01754,51.45506],[0.01144,51.45669],[0.00914,51.46473],[0.01334,51.46685],[0.01266,51.46982],[0.01637,51.46902],[0.01497,51.47311],[0.01839,51.47393],[-0.01402,51.47265],[-0.01307,51.46895],[-0.01504,51.46805],[-0.02288,51.4751],[-0.0168,51.4803],[-0.02635,51.48153],[-0.02513,51.48511],[-0.02346,51.48684],[-0.01078,51.48472],[-0.00199,51.48779],[-0.00036,51.49141],[-0.00508,51.50138],[0.00069,51.50651],[0.00766,51.50553],[0.01697,51.49846],[0.02509,51.49596],[0.06626,51.49678],[0.07671,51.4993],[0.09081,51.51094],[0.11837,51.5136],[0.12061,51.51106],[0.12152,51.48765],[0.12423,51.47684],[0.11856,51.47891],[0.11205,51.47309],[0.10829,51.47614],[0.09834,51.47546],[0.08232,51.46663],[0.08294,51.45985],[0.0787,51.45927],[0.08577,51.45647],[0.08745,51.44326],[0.08288,51.4433],[0.08448,51.44202],[0.07503,51.43593],[0.07651,51.43488],[0.06177,51.42374]]]}},{"type":"Feature","properties":{"name":"Hackney"},"geometry":{"type":"Polygon","coordinates":[[[-0.06113,51.57781],[-0.05838,51.57255],[-0.04743,51.56521],[-0.04702,51.56258],[-0.02912,51.56125],[-0.01842,51.55514],[-0.01644,51.5433],[-0.02903,51.54231],[-0.0332,51.54466],[-0.04481,51.53583],[-0.06242,51.53554],[-0.06219,51.53327],[-0.07372,51.53036],[-0.0772,51.52732],[-0.07614,51.52217],[-0.08517,51.52036],[-0.08497,51.52622],[-0.09536,51.52922],[-0.09699,51.533],[-0.08657,51.53728],[-0.08379,51.54663],[-0.07639,51.54734],[-0.07946,51.55172],[-0.09035,51.55418],[-0.09165,51.56025],[-0.09854,51.56086],[-0.10446,51.56473],[-0.09607,51.57072],[-0.0978,51.57364],[-0.06113,51.57781]]]}},{"type":"Feature","properties":{"name":"Hammersmith and Fulham"},"geometry":{"type":"Polygon","coordinates":[[[-0.22868,51.53049],[-0.22659,51.52482],[-0.22827,51.52112],[-0.21925,51.5096],[-0.21577,51.50914],[-0.21788,51.50612],[-0.21412,51.50076],[-0.18385,51.47744],[-0.17778,51.47757],[-0.18352,51.46703],[-0.19516,51.46391],[-0.21334,51.46705],[-0.22456,51.4752],[-0.22932,51.48751],[-0.2454,51.4895],[-0.24445,51.49797],[-0.2493,51.49697],[-0.25504,51.50432],[-0.24568,51.50468],[-0.24506,51.50676],[-0.25264,51.52492],[-0.24527,51.53132],[-0.24636,51.53282],[-0.22868,51.53049]]]}},{"type":"Feature","properties":{"name":"Haringey"},"geometry":{"type":"Polygon","coordinates":[[[-0.05432,51.60889],[-0.04139,51.60567],[-0.05067,51.59641],[-0.05342,51.5905],[-0.05218,51.58761],[-0.06167,51.5803],[-0.06113,51.57781],[-0.0978,51.57364],[-0.09607,51.57072],[-0.10446,51.56473],[-0.11954,51.57556],[-0.14237,51.56915],[-0.16041,51.57282],[-0.17124,51.57246],[-0.16572,51.58328],[-0.15713,51.58623],[-0.16023,51.58801],[-0.15865,51.59208],[-0.16174,51.59751],[-0.15632,51.60539],[-0.15133,51.59748],[-0.14213,51.60326],[-0.1434,51.60888],[-0.13524,51.61125],[-0.11747,51.60823],[-0.05432,51.60889]]]}},{"type":"Feature","properties":{"name":"Harrow"},"geometry":{"type":"Polygon","coordinates":[[[-0.30456,51.63641],[-0.30393,51.6315],[-0.26712,51.6004],[-0.29039,51.5936],[-0.28462,51.59104],[-0.28241,51.58513],[-0.30482,51.58709],[-0.32665,51.5788],[-0.32213,51.56968],[-0.32972,51.56712],[-0.32823,51.56254],[-0.33558,51.55656],[-0.34753,51.55971],[-0.37653,51.55354],[-0.39156,51.58159],[-0.39202,51.58836],[-0.39547,51.59023],[-0.39655,51.59536],[-0.40241,51.60206],[-0.40406,51.61322],[-0.37584,51.61822],[-0.35977,51.62527],[-0.33981,51.63085],[-0.33828,51.62951],[-0.31667,51.64057],[-0.30456,51.63641]]]}},{"type":"Feature","properties":{"name":"Havering"},"geometry":{"type":"Polygon","coordinates":[[[0.16554,51.52839],[0.19026,51.5527],[0.18482,51.55645],[0.1827,51.56133],[0.18522,51.56555],[0.17347,51.56512],[0.16193,51.56162],[0.14684,51.56879],[0.14983,51.56972],[0.14706,51.5757],[0.14753,51.58082],[0.15101,51.58378],[0.15111,51.59558],[0.14765,51.59683],[0.14955,51.60291],[0.14746,51.61249],[0.13824,51.62357],[0.16896,51.62145],[0.18129,51.62585],[0.20367,51.6252],[0.22415,51.63176],[0.25286,51.61745],[0.26417,51.6089],[0.25814,51.60653],[0.25407,51.60162],[0.26994,51.5996],[0.27135,51.58905],[0.28682,51.57348],[0.29036,51.56432],[0.3131,51.56584],[0.31536,51.55785],[0.32788,51.55101],[0.32897,51.54585],[0.33151,51.54596],[0.33397,51.54251],[0.33409,51.54052],[0.3315,51.54006],[0.30079,51.53877],[0.29727,51.53768],[0.29782,51.53533],[0.26541,51.53217],[0.26677,51.52333],[0.26374,51.51788],[0.25389,51.5179],[0.25091,51.52883],[0.24902,51.52869],[0.2459,51.52353],[0.24291,51.52441],[0.24075,51.52197],[0.24496,51.51877],[0.23723,51.51935],[0.24208,51.50798],[0.22665,51.50658],[0.23002,51.49938],[0.21421,51.49605],[0.21039,51.48589],[0.19205,51.48416],[0.18341,51.48624],[0.17266,51.50367],[0.15802,51.50878],[0.16554,51.52839]]]}},{"type":"Feature","properties":{"name":"Hillingdon"},"geometry":{"type":"Polygon","coordinates":[[[-0.37695,51.52422],[-0.38999,51.514],[-0.39359,51.507],[-0.40967,51.49998],[-0.41263,51.4886],[-0.41686,51.48247],[-0.41584,51.47403],[-0.41118,51.4699],[-0.43359,51.46176],[-0.43651,51.45811],[-0.43506,51.45687],[-0.44814,51.45365],[-0.47358,51.45865],[-0.47705,51.46134],[-0.49388,51.46274],[-0.50037,51.46715],[-0.5103,51.46753],[-0.4989,51.48573],[-0.49919,51.4886],[-0.49045,51.49388],[-0.48976,51.49899],[-0.48319,51.50667],[-0.4898,51.51155],[-0.49235,51.5171],[-0.48899,51.5291],[-0.4905,51.53418],[-0.49551,51.53857],[-0.4918,51.54163],[-0.49137,51.54615],[-0.47773,51.5549],[-0.47661,51.55806],[-0.48477,51.56687],[-0.48404,51.57516],[-0.48895,51.5773],[-0.48962,51.58181],[-0.49472,51.58465],[-0.49957,51.59222],[-0.5009,51.60021],[-0.49633,51.60243],[-0.49925,51.60896],[-0.4954,51.61883],[-0.50017,51.62211],[-0.49765,51.62671],[-0.49947,51.63033],[-0.49155,51.6308],[-0.48787,51.6268],[-0.45714,51.61233],[-0.44889,51.61536],[-0.44556,51.61966],[-0.44058,51.62011],[-0.40406,51.61322],[-0.40241,51.60206],[-0.39655,51.59536],[-0.39547,51.59023],[-0.39202,51.58836],[-0.39156,51.58159],[-0.37775,51.55472],[-0.39872,51.54799],[-0.39529,51.54263],[-0.4193,51.54048],[-0.41964,51.53863],[-0.41184,51.53415],[-0.37615,51.52882],[-0.37695,51.52422]]]}},{"type":"Feature","properties":{"name":"Hounslow"},"geometry":{"type":"Polygon","coordinates":[[[-0.37815,51.49648],[-0.37183,51.49052],[-0.36294,51.49595],[-0.35052,51.49914],[-0.3421,51.49606],[-0.31915,51.49429],[-0.31586,51.49593],[-0.31198,51.49203],[-0.30546,51.49459],[-0.30587,51.49623],[-0.29762,51.49495],[-0.30069,51.49937],[-0.29403,51.50158],[-0.28679,51.50068],[-0.28076,51.50287],[-0.26765,51.49396],[-0.25541,51.49493],[-0.25305,51.50142],[-0.2493,51.49697],[-0.24445,51.49797],[-0.24558,51.49018],[-0.24341,51.48794],[-0.24976,51.48351],[-0.25191,51.47471],[-0.25781,51.47116],[-0.26804,51.47218],[-0.27941,51.48402],[-0.29174,51.48737],[-0.29697,51.48568],[-0.30698,51.4756],[-0.31861,51.47095],[-0.32073,51.46542],[-0.32665,51.46176],[-0.32689,51.45706],[-0.33035,51.4579],[-0.33697,51.45465],[-0.34061,51.45728],[-0.34012,51.45926],[-0.34869,51.45678],[-0.37304,51.45746],[-0.38377,51.44953],[-0.38779,51.44945],[-0.37908,51.44282],[-0.36684,51.44166],[-0.37788,51.43682],[-0.37613,51.43556],[-0.3879,51.42875],[-0.3841,51.42269],[-0.38538,51.42075],[-0.39276,51.42348],[-0.39135,51.42234],[-0.40592,51.42268],[-0.41909,51.43238],[-0.42955,51.42881],[-0.44,51.43064],[-0.43977,51.43464],[-0.44773,51.43502],[-0.44631,51.44001],[-0.45649,51.43812],[-0.45748,51.44911],[-0.4615,51.44901],[-0.45866,51.45634],[-0.444,51.45329],[-0.44147,51.45683],[-0.43506,51.45687],[-0.43651,51.45811],[-0.43359,51.46176],[-0.41118,51.4699],[-0.41584,51.47403],[-0.41686,51.48247],[-0.40927,51.50034],[-0.38709,51.49471],[-0.37815,51.49648]]]}},{"type":"Feature","properties":{"name":"Islington"},"geometry":{"type":"Polygon","coordinates":[[[-0.09854,51.56086],[-0.09165,51.56025],[-0.09035,51.55418],[-0.07946,51.55172],[-0.07658,51.54796],[-0.07679,51.5461],[-0.08379,51.54663],[-0.08657,51.53728],[-0.09699,51.533],[-0.09536,51.52922],[-0.08497,51.52622],[-0.08614,51.51876],[-0.09673,51.52327],[-0.0976,51.52071],[-0.1053,51.51856],[-0.107,51.52218],[-0.11357,51.52456],[-0.11601,51.5299],[-0.12251,51.53075],[-0.12248,51.53738],[-0.12704,51.54748],[-0.14089,51.56024],[-0.14249,51.56895],[-0.11954,51.57556],[-0.09854,51.56086]]]}},{"type":"Feature","properties":{"name":"Kensington and Chelsea"},"geometry":{"type":"Polygon","coordinates":[[[-0.20155,51.52277],[-0.20056,51.52067],[-0.20364,51.52061],[-0.19917,51.51457],[-0.19504,51.51505],[-0.19211,51.50989],[-0.1879,51.5102],[-0.18422,51.50181],[-0.1803,51.50148],[-0.17953,51.4978],[-0.16547,51.49872],[-0.15843,51.50227],[-0.15498,51.49388],[-0.15583,51.48962],[-0.1498,51.48458],[-0.17089,51.4817],[-0.17778,51.47757],[-0.18385,51.47744],[-0.21412,51.50076],[-0.21788,51.50612],[-0.21577,51.50914],[-0.21925,51.5096],[-0.22827,51.52112],[-0.22659,51.52482],[-0.22847,51.53038],[-0.20155,51.52277]]]}},{"type":"Feature","properties":{"name":"Kingston upon Thames"},"geometry":{"type":"Polygon","coordinates":[[[-0.30403,51.34305],[-0.30587,51.33526],[-0.31929,51.32781],[-0.33013,51.32752],[-0.32747,51.34401],[-0.33052,51.34843],[-0.31994,51.35964],[-0.31693,51.37293],[-0.30868,51.37546],[-0.30737,51.37839],[-0.31172,51.38744],[-0.3168,51.38858],[-0.31412,51.39023],[-0.3177,51.39368],[-0.30906,51.40104],[-0.30601,51.42125],[-0.31445,51.42827],[-0.31066,51.43223],[-0.30694,51.43017],[-0.3016,51.43144],[-0.29477,51.42648],[-0.29062,51.429],[-0.2866,51.42019],[-0.25406,51.43731],[-0.251,51.43345],[-0.25421,51.4297],[-0.25295,51.4234],[-0.24463,51.40436],[-0.24746,51.39766],[-0.24138,51.39346],[-0.23883,51.38604],[-0.24415,51.3835],[-0.24503,51.38004],[-0.26115,51.37961],[-0.28104,51.3671],[-0.28814,51.36227],[-0.28508,51.36122],[-0.30403,51.34305]]]}},{"type":"Feature","properties":{"name":"Lambeth"},"geometry":{"type":"Polygon","coordinates":[[[-0.08897,51.43092],[-0.07863,51.41984],[-0.11267,51.42324],[-0.12789,51.41199],[-0.14802,51.41288],[-0.13781,51.42112],[-0.13839,51.43047],[-0.13531,51.43045],[-0.14004,51.43684],[-0.13595,51.44188],[-0.14361,51.44179],[-0.14566,51.44579],[-0.14229,51.45098],[-0.14771,51.45232],[-0.15119,51.4659],[-0.13523,51.47293],[-0.12749,51.48189],[-0.12625,51.4845],[-0.12953,51.48592],[-0.1239,51.49131],[-0.12064,51.50583],[-0.1158,51.50908],[-0.10911,51.50985],[-0.10642,51.505],[-0.1059,51.50206],[-0.1114,51.49647],[-0.10303,51.49154],[-0.10841,51.48587],[-0.104,51.48088],[-0.10831,51.48033],[-0.09995,51.47689],[-0.10057,51.47429],[-0.09595,51.4699],[-0.09303,51.47214],[-0.09005,51.46623],[-0.09217,51.46114],[-0.10143,51.45227],[-0.0951,51.44556],[-0.08897,51.43092]]]}},{"type":"Feature","properties":{"name":"Lewisham"},"geometry":{"type":"Polygon","coordinates":[[[-0.00335,51.41507],[-0.01421,51.41367],[-0.02218,51.41676],[-0.02091,51.42093],[-0.03032,51.42573],[-0.04594,51.42245],[-0.07389,51.42616],[-0.07354,51.43136],[-0.06341,51.43755],[-0.06498,51.44117],[-0.06178,51.44781],[-0.05751,51.45035],[-0.0461,51.44989],[-0.0416,51.455],[-0.04611,51.45698],[-0.0454,51.46276],[-0.05223,51.46923],[-0.05397,51.48799],[-0.04217,51.49005],[-0.03991,51.49296],[-0.02989,51.49358],[-0.02346,51.48684],[-0.02635,51.48153],[-0.0168,51.4803],[-0.02288,51.4751],[-0.01504,51.46805],[-0.01307,51.46895],[-0.01402,51.47265],[0.01839,51.47393],[0.01497,51.47311],[0.01637,51.46902],[0.01266,51.46982],[0.01334,51.46685],[0.00915,51.46589],[0.01015,51.45912],[0.01154,51.45663],[0.01754,51.45506],[0.0199,51.45074],[0.01512,51.45004],[0.02199,51.44897],[0.02162,51.44271],[0.02895,51.44164],[0.02875,51.43876],[0.02473,51.43823],[0.02543,51.4357],[0.0287,51.43643],[0.03122,51.43208],[0.03773,51.43339],[0.03902,51.42489],[0.03624,51.42237],[0.02518,51.429],[0.01416,51.42618],[0.00813,51.42305],[0.00573,51.41852],[-0.00335,51.41507]]]}},{"type":"Feature","properties":{"name":"Merton"},"geometry":{"type":"Polygon","coordinates":[[[-0.14064,51.41913],[-0.14802,51.41288],[-0.12756,51.41227],[-0.13228,51.40694],[-0.12418,51.39761],[-0.12988,51.39293],[-0.14189,51.38935],[-0.14434,51.39069],[-0.161,51.38778],[-0.17483,51.39343],[-0.18842,51.38546],[-0.19392,51.38788],[-0.20048,51.38489],[-0.20976,51.38826],[-0.21811,51.38016],[-0.2339,51.38772],[-0.23463,51.39055],[-0.2397,51.3893],[-0.24176,51.39395],[-0.24746,51.39766],[-0.24463,51.40436],[-0.25423,51.42958],[-0.25106,51.43258],[-0.23129,51.43815],[-0.21221,51.43788],[-0.19001,51.44149],[-0.19103,51.43306],[-0.18976,51.43136],[-0.18573,51.43318],[-0.18191,51.42475],[-0.16506,51.4201],[-0.16156,51.41988],[-0.15985,51.42265],[-0.14453,51.41775],[-0.14064,51.41913]]]}},{"type":"Feature","properties":{"name":"Newham"},"geometry":{"type":"Polygon","coordinates":[[[0.06795,51.5362],[0.07288,51.52928],[0.09258,51.52576],[0.09495,51.51707],[0.09987,51.5145],[0.09978,51.51192],[0.08993,51.51058],[0.07671,51.4993],[0.06626,51.49678],[0.02791,51.49576],[0.01812,51.49787],[0.00766,51.50553],[0.00996,51.50843],[0.00607,51.50994],[0.00738,51.51386],[0.00265,51.51063],[0.00367,51.5153],[-0.00224,51.51798],[-0.00563,51.51677],[-0.00894,51.52027],[-0.00743,51.52626],[-0.01747,51.53156],[-0.02122,51.53712],[-0.01607,51.54254],[-0.01907,51.55164],[0.00584,51.55067],[0.00957,51.55126],[0.01117,51.55442],[0.01701,51.55321],[0.02312,51.5569],[0.0254,51.55409],[0.04637,51.55484],[0.04199,51.56147],[0.05038,51.56401],[0.05919,51.55696],[0.06587,51.55568],[0.06795,51.5362]]]}},{"type":"Feature","properties":{"name":"Redbridge"},"geometry":{"type":"Polygon","coordinates":[[[0.09404,51.54604],[0.09261,51.54963],[0.07801,51.54411],[0.06839,51.54444],[0.06587,51.55568],[0.05919,51.55696],[0.05038,51.56401],[0.04199,51.56147],[0.04637,51.55484],[0.0254,51.55409],[0.02342,51.55682],[0.01482,51.55946],[0.01449,51.56563],[0.01892,51.56638],[0.01901,51.57177],[0.01641,51.57293],[0.01748,51.57748],[0.01556,51.58341],[0.01343,51.58381],[0.0121,51.59331],[0.01295,51.59927],[0.02143,51.61207],[0.01632,51.61688],[0.00884,51.61911],[0.01456,51.61893],[0.02134,51.62907],[0.04094,51.6157],[0.05375,51.61831],[0.04814,51.61335],[0.06261,51.60709],[0.07288,51.60471],[0.08008,51.60701],[0.08719,51.60449],[0.09263,51.60622],[0.09192,51.60824],[0.09488,51.6108],[0.09233,51.6136],[0.09812,51.61545],[0.10389,51.61258],[0.11676,51.61695],[0.11936,51.6154],[0.12924,51.62147],[0.13824,51.62357],[0.14753,51.61234],[0.14955,51.60291],[0.14822,51.59908],[0.12961,51.59008],[0.13109,51.58753],[0.12648,51.58673],[0.12771,51.58166],[0.13359,51.57999],[0.12931,51.57632],[0.13163,51.57186],[0.12942,51.56647],[0.11911,51.56309],[0.11755,51.55918],[0.12056,51.55856],[0.1134,51.55734],[0.11481,51.55533],[0.11193,51.55263],[0.09404,51.54604]]]}},{"type":"Feature","properties":{"name":"Richmond upon Thames"},"geometry":{"type":"Polygon","coordinates":[[[-0.37742,51.44244],[-0.38779,51.44945],[-0.38377,51.44953],[-0.37304,51.45746],[-0.34869,51.45678],[-0.34012,51.45926],[-0.34061,51.45728],[-0.33697,51.45465],[-0.33035,51.4579],[-0.32689,51.45706],[-0.32665,51.46176],[-0.32073,51.46542],[-0.31861,51.47095],[-0.30698,51.4756],[-0.29697,51.48568],[-0.29209,51.48732],[-0.28285,51.48584],[-0.27696,51.48211],[-0.27082,51.47371],[-0.26009,51.47086],[-0.25191,51.47471],[-0.24816,51.48527],[-0.24082,51.48919],[-0.23363,51.48951],[-0.22705,51.48536],[-0.22536,51.47648],[-0.2217,51.47238],[-0.2237,51.47078],[-0.23259,51.47263],[-0.23328,51.46401],[-0.25289,51.46523],[-0.25551,51.46348],[-0.25909,51.45495],[-0.2473,51.4492],[-0.2416,51.44315],[-0.26839,51.43097],[-0.28044,51.42187],[-0.2866,51.42019],[-0.29062,51.429],[-0.29477,51.42648],[-0.3016,51.43144],[-0.30694,51.43017],[-0.31066,51.43223],[-0.31445,51.42827],[-0.30602,51.4215],[-0.30906,51.40104],[-0.31827,51.39333],[-0.3246,51.39151],[-0.32868,51.39232],[-0.34051,51.40303],[-0.35765,51.41149],[-0.37944,51.40785],[-0.38966,51.41071],[-0.3903,51.41435],[-0.38613,51.41429],[-0.38665,51.4201],[-0.3929,51.4233],[-0.39112,51.42318],[-0.38538,51.42075],[-0.3841,51.42269],[-0.3879,51.42875],[-0.37613,51.43556],[-0.37788,51.43682],[-0.36684,51.44166],[-0.37288,51.44366],[-0.37742,51.44244]]]}},{"type":"Feature","properties":{"name":"Southwark"},"geometry":{"type":"Polygon","coordinates":[[[-0.08021,51.50688],[-0.05984,51.50168],[-0.0451,51.50807],[-0.03814,51.50856],[-0.03051,51.50596],[-0.02933,51.50283],[-0.02989,51.49358],[-0.03991,51.49296],[-0.04217,51.49005],[-0.05397,51.48799],[-0.05223,51.46923],[-0.0454,51.46276],[-0.04611,51.45698],[-0.0416,51.455],[-0.0461,51.44989],[-0.05751,51.45035],[-0.06178,51.44781],[-0.06498,51.44117],[-0.06341,51.43755],[-0.07354,51.43136],[-0.07389,51.42616],[-0.07828,51.42052],[-0.08338,51.42297],[-0.08827,51.42946],[-0.0951,51.44556],[-0.10072,51.45033],[-0.10096,51.45407],[-0.09217,51.46114],[-0.09003,51.46617],[-0.09303,51.47214],[-0.09595,51.4699],[-0.10057,51.47429],[-0.09995,51.47689],[-0.10831,51.48033],[-0.104,51.48088],[-0.10841,51.48587],[-0.10303,51.49154],[-0.1114,51.49647],[-0.1059,51.50206],[-0.10911,51.50985],[-0.08021,51.50688]]]}},{"type":"Feature","properties":{"name":"Sutton"},"geometry":{"type":"Polygon","coordinates":[[[-0.22687,51.3626],[-0.23705,51.36691],[-0.2454,51.36685],[-0.24496,51.38066],[-0.24415,51.3835],[-0.23883,51.38604],[-0.23967,51.38931],[-0.23463,51.39055],[-0.2339,51.38772],[-0.21811,51.38016],[-0.20976,51.38826],[-0.20048,51.38489],[-0.19392,51.38788],[-0.18842,51.38546],[-0.17483,51.39343],[-0.16526,51.38799],[-0.1346,51.391],[-0.1288,51.38571],[-0.13029,51.38221],[-0.12591,51.37558],[-0.12787,51.3747],[-0.12474,51.37365],[-0.12206,51.36626],[-0.12403,51.36528],[-0.12095,51.36329],[-0.12187,51.35906],[-0.12468,51.35884],[-0.12139,51.35773],[-0.11688,51.34576],[-0.12689,51.34487],[-0.1283,51.34744],[-0.13255,51.34426],[-0.14417,51.34227],[-0.14343,51.34056],[-0.14751,51.33878],[-0.14403,51.33067],[-0.1493,51.32877],[-0.14442,51.32648],[-0.1455,51.32353],[-0.15654,51.32151],[-0.16418,51.32604],[-0.16307,51.33027],[-0.17286,51.33002],[-0.17413,51.33321],[-0.18199,51.33786],[-0.19732,51.3436],[-0.2012,51.33989],[-0.21303,51.33554],[-0.2119,51.33331],[-0.21409,51.33035],[-0.22094,51.32987],[-0.22982,51.33653],[-0.21726,51.34339],[-0.22687,51.3626]]]}},{"type":"Feature","properties":{"name":"Tower Hamlets"},"geometry":{"type":"Polygon","coordinates":[[[0.0,51.50632],[-0.00513,51.50099],[-0.00036,51.49141],[-0.00135,51.48844],[-0.00868,51.48513],[-0.01751,51.48481],[-0.02915,51.49193],[-0.02957,51.50458],[-0.03187,51.50677],[-0.0433,51.5085],[-0.05593,51.50241],[-0.06587,51.50254],[-0.08015,51.50687],[-0.07686,51.51049],[-0.07267,51.51024],[-0.07361,51.51415],[-0.07938,51.51887],[-0.07572,51.5232],[-0.0772,51.52732],[-0.07372,51.53036],[-0.06219,51.53327],[-0.06242,51.53554],[-0.04481,51.53583],[-0.0332,51.54466],[-0.02903,51.54231],[-0.01644,51.5433],[-0.02119,51.53695],[-0.01747,51.53156],[-0.00743,51.52626],[-0.00879,51.51981],[-0.00532,51.51661],[-0.00224,51.51798],[0.00387,51.51515],[0.00256,51.51066],[0.00698,51.51415],[0.00607,51.50994],[0.00996,51.50843],[0.00766,51.50553],[0.0,51.50632]]]}},{"type":"Feature","properties":{"name":"Waltham Forest"},"geometry":{"type":"Polygon","coordinates":[[[0.01456,51.61893],[0.00884,51.61911],[0.01632,51.61688],[0.02143,51.61207],[0.01295,51.59927],[0.01202,51.59258],[0.01343,51.58381],[0.01556,51.58341],[0.01748,51.57748],[0.01641,51.57293],[0.01915,51.56994],[0.01875,51.56617],[0.01449,51.56563],[0.01425,51.56135],[0.02159,51.5549],[0.01117,51.55442],[0.00957,51.55126],[0.00584,51.55067],[-0.01708,51.55141],[-0.01842,51.55514],[-0.02772,51.56079],[-0.04697,51.56256],[-0.04743,51.56521],[-0.05838,51.57255],[-0.0621,51.57977],[-0.05218,51.58761],[-0.05342,51.5905],[-0.05041,51.59673],[-0.04118,51.60585],[-0.03417,51.6091],[-0.03518,51.61336],[-0.01533,51.63549],[-0.01222,51.64626],[0.00146,51.64171],[0.02276,51.64115],[0.02578,51.6346],[0.01456,51.61893]]]}},{"type":"Feature","properties":{"name":"Wandsworth"},"geometry":{"type":"Polygon","coordinates":[[[-0.14453,51.41775],[-0.15985,51.42265],[-0.16156,51.41988],[-0.16506,51.4201],[-0.18191,51.42475],[-0.18573,51.43318],[-0.18976,51.43136],[-0.19103,51.43306],[-0.19001,51.44149],[-0.21221,51.43788],[-0.23105,51.4382],[-0.25106,51.43258],[-0.25406,51.43731],[-0.2416,51.44315],[-0.2473,51.4492],[-0.25909,51.45495],[-0.25802,51.46029],[-0.25289,51.46523],[-0.23328,51.46401],[-0.23146,51.47285],[-0.2237,51.47078],[-0.2217,51.47238],[-0.2048,51.46469],[-0.19014,51.46433],[-0.18286,51.46754],[-0.17778,51.47757],[-0.17333,51.48095],[-0.12953,51.48592],[-0.12625,51.4845],[-0.13462,51.47339],[-0.15119,51.4659],[-0.14771,51.45232],[-0.14229,51.45098],[-0.14566,51.44579],[-0.14361,51.44179],[-0.13596,51.44201],[-0.14004,51.43684],[-0.1353,51.4303],[-0.13839,51.43047],[-0.13781,51.42112],[-0.14453,51.41775]]]}},{"type":"Feature","properties":{"name":"Westminster"},"geometry":{"type":"Polygon","coordinates":[[[-0.11164,51.51535],[-0.11142,51.50976],[-0.12064,51.50583],[-0.12301,51.4935],[-0.12735,51.4874],[-0.1371,51.48394],[-0.1498,51.48458],[-0.15583,51.48962],[-0.15498,51.49388],[-0.15843,51.50227],[-0.16547,51.49872],[-0.17953,51.4978],[-0.1803,51.50148],[-0.18422,51.50181],[-0.1879,51.5102],[-0.19211,51.50989],[-0.19504,51.51505],[-0.19917,51.51457],[-0.20364,51.52061],[-0.20056,51.52067],[-0.20155,51.52277],[-0.20668,51.52618],[-0.21548,51.52676],[-0.21598,51.52919],[-0.21517,51.53141],[-0.20285,51.53294],[-0.19653,51.52768],[-0.19145,51.53631],[-0.18874,51.53455],[-0.179,51.53978],[-0.16492,51.5358],[-0.15269,51.53754],[-0.14715,51.52506],[-0.13079,51.51712],[-0.12932,51.5135],[-0.11164,51.51535]]]}}]}