{
"type": "FeatureCollection",
"name": "london_boundaries_clean",
"crs": { "type": "name", "properties": { "name": "urn:ogc:def:crs:OGC:1.3:CRS84" } },
"features": [
{ "type": "Feature", "properties": { "FID": 264, "LAD24CD": "E09000001", "LAD24NM": "City of London", "LAD24NMW": " ", "BNG_E": 532382, "BNG_N": 181358, "LONG": -0.09351, "LAT": 51.51564, "GlobalID": "1c2872aa-58a4-4648-b66a-2040b247183d" }, "geometry": { "type": "Polygon", "coordinates": [ [ [ -0.080182948054445, 51.506872265864097 ], [ -0.109174000436823, 51.509874369998002 ], [ -0.111444375072681, 51.509774699574699 ], [ -0.111567824442113, 51.515335030001701 ], [ -0.105290341558648, 51.518554858750797 ], [ -0.085232645096576, 51.520348397184499 ], [ -0.078529105704302, 51.521511918880101 ], [ -0.080182948054445, 51.506872265864097 ] ] ] } },
{ "type": "Feature", "properties": { "FID": 265, "LAD24CD": "E09000002", "LAD24NM": "Barking and Dagenham", "LAD24NMW": " ", "BNG_E": 547757, "BNG_N": 185111, "LONG": 0.129479, "LAT": 51.54555, "GlobalID": "43a3d128-e49c-4c54-a13c-b7cd1466cc12" }, "geometry": { "type": "Polygon", "coordinates": [ [ [ 0.16011671259232, 51.511780958014299 ], [ 0.158741163472628, 51.5122654258303 ], [ 0.126869821122681, 51.519567161445202 ], [ 0.098144612347847, 51.5149582281948 ], [ 0.098120894043972, 51.514947808650497 ], [ 0.092601548169419, 51.525697997244698 ], [ 0.07274547622173, 51.529274737793202 ], [ 0.068361694633867, 51.544390390102798 ], [ 0.093519764473527, 51.545857894368403 ], [ 0.118901016628217, 51.557370991021202 ], [ 0.131578541181193, 51.5718243720301 ], [ 0.126386612488677, 51.586725221056398 ], [ 0.14820590165784, 51.598968465163601 ], [ 0.146703647684621, 51.568796634228498 ], [ 0.161893735700278, 51.561616873806102 ], [ 0.185180463309676, 51.565513082632002 ], [ 0.190222134044087, 51.552652397052299 ], [ 0.16011671259232, 51.511780958014299 ] ] ] } },
{ "type": "Feature", "properties": { "FID": 266, "LAD24CD": "E09000003", "LAD24NM": "Barnet", "LAD24NMW": " ", "BNG_E": 523473, "BNG_N": 191752, "LONG": -0.21819, "LAT": 51.61107, "GlobalID": "7ee3a825-544d-42bf-aef9-a1f871d68dba" }, "geometry": { "type": "Polygon", "coordinates": [ [ [ -0.181960815257973, 51.668683195615401 ], [ -0.185893323219588, 51.662845345591798 ], [ -0.154731838818758, 51.655545145184902 ], [ -0.129093931888576, 51.632265448949703 ], [ -0.144495116086128, 51.615509012540002 ], [ -0.13870599645949, 51.610185787169598 ], [ -0.151330701481231, 51.597471099965503 ], [ -0.156483326473497, 51.605324577965902 ], [ -0.157130981863992, 51.586191395252001 ], [ -0.17123183297214, 51.572418251471703 ], [ -0.213486677002519, 51.555190932925498 ], [ -0.233417227576263, 51.571982958421003 ], [ -0.251130244193254, 51.570283872528698 ], [ -0.248234179694855, 51.5843137322831 ], [ -0.267113115479641, 51.600371968584199 ], [ -0.304449971011893, 51.636348720165898 ], [ -0.25736482156208, 51.641821082375202 ], [ -0.250582589477333, 51.656057352274502 ], [ -0.212135030723747, 51.661353528369602 ], [ -0.203352928676407, 51.670126498975101 ], [ -0.191066699360921, 51.663896705323801 ], [ -0.181960815257973, 51.668683195615401 ] ] ] } },
{ "type": "Feature", "properties": { "FID": 267, "LAD24CD": "E09000004", "LAD24NM": "Bexley", "LAD24NMW": " ", "BNG_E": 549202, "BNG_N": 175434, "LONG": 0.146212, "LAT": 51.45822, "GlobalID": "8c8558d5-7178-4269-80ef-e6cb7fc69748" }, "geometry": { "type": "Polygon", "coordinates": [ [ [ 0.162513688689931, 51.504796291456501 ], [ 0.168813601248937, 51.499362146031203 ], [ 0.169215771233888, 51.498865000491001 ], [ 0.183617006203287, 51.481055160535803 ], [ 0.217618086706926, 51.480474718645198 ], [ 0.221177283091669, 51.478799602925598 ], [ 0.203374621646498, 51.4543154589105 ], [ 0.172844869107023, 51.443287151818303 ], [ 0.164328170821928, 51.4285849613143 ], [ 0.155875040956964, 51.430876583241002 ], [ 0.152932433172376, 51.408708482295701 ], [ 0.148869410494427, 51.408429128934699 ], [ 0.107022545170679, 51.414264365080697 ], [ 0.075360212261282, 51.431986652216402 ], [ 0.087426753747751, 51.443284343343599 ], [ 0.08231307420876, 51.466641315446203 ], [ 0.098244270803385, 51.475452421210498 ], [ 0.124191087369442, 51.476849019469697 ], [ 0.118676522859303, 51.511316598781796 ], [ 0.120233982272896, 51.511450802564703 ], [ 0.162513688689931, 51.504796291456501 ] ] ] } },
{ "type": "Feature", "properties": { "FID": 268, "LAD24CD": "E09000005", "LAD24NM": "Brent", "LAD24NMW": " ", "BNG_E": 519615, "BNG_N": 186465, "LONG": -0.27568, "LAT": 51.56438, "GlobalID": "59b8baef-4d87-44d1-b638-8171f84bb971" }, "geometry": { "type": "Polygon", "coordinates": [ [ [ -0.213486677002519, 51.555190932925498 ], [ -0.191467608561554, 51.536292359070003 ], [ -0.196479321959949, 51.527638636562301 ], [ -0.205142405490973, 51.5329559016986 ], [ -0.216020723983129, 51.527920361167503 ], [ -0.228440758153743, 51.530319157203301 ], [ -0.246281570983423, 51.532737510347197 ], [ -0.284241047709167, 51.5289125958301 ], [ -0.282457376588103, 51.538648676889501 ], [ -0.307453582279767, 51.5330870588732 ], [ -0.307735039440403, 51.545878815828601 ], [ -0.335555531666752, 51.556556900042999 ], [ -0.322148244821014, 51.569677057154699 ], [ -0.326642146067183, 51.578775147283302 ], [ -0.304696795432772, 51.587052553308901 ], [ -0.282465247610045, 51.585034967364003 ], [ -0.290405901610672, 51.593543801763197 ], [ -0.267113115479641, 51.600371968584199 ], [ -0.248234179694855, 51.5843137322831 ], [ -0.251130244193254, 51.570283872528698 ], [ -0.233417227576263, 51.571982958421003 ], [ -0.213486677002519, 51.555190932925498 ] ] ] } },
{ "type": "Feature", "properties": { "FID": 269, "LAD24CD": "E09000006", "LAD24NM": "Bromley", "LAD24NMW": " ", "BNG_E": 542036, "BNG_N": 165707, "LONG": 0.039246, "LAT": 51.37266, "GlobalID": "3b50bbd6-19b9-4252-8515-3d07f7a7c9f4" }, "geometry": { "type": "Polygon", "coordinates": [ [ [ 0.075360212261282, 51.431986652216402 ], [ 0.107022545170679, 51.414264365080697 ], [ 0.148869410494427, 51.408429128934699 ], [ 0.162384150043184, 51.392490302942797 ], [ 0.147741030714359, 51.392801002728298 ], [ 0.152057738933261, 51.369693705614203 ], [ 0.136958108456318, 51.344174605801101 ], [ 0.118456303441167, 51.344147783247401 ], [ 0.117900333226097, 51.329647100945003 ], [ 0.085029299988601, 51.316023205289497 ], [ 0.085693083414603, 51.293084227476797 ], [ 0.042396497430127, 51.292673047641699 ], [ 0.032909417932232, 51.307520911500298 ], [ 0.015009378467909, 51.291786070062798 ], [ 0.002255311924003, 51.329134835034303 ], [ -0.026766570121141, 51.379375935417201 ], [ -0.036902864195052, 51.377016904137101 ], [ -0.036523498687031, 51.388431537429497 ], [ -0.068201525556868, 51.403488310827001 ], [ -0.078557367172468, 51.419874212229701 ], [ -0.078287681880069, 51.4206047143525 ], [ -0.073907270099848, 51.4262129239712 ], [ -0.030215896380044, 51.425682790595097 ], [ -0.010312080263417, 51.413577794038602 ], [ 0.025458977328269, 51.4289732426829 ], [ 0.036276023931694, 51.422418461914098 ], [ 0.02937881550058, 51.441705419749198 ], [ 0.061705411141948, 51.423700370848103 ], [ 0.075360212261282, 51.431986652216402 ] ] ] } },
{ "type": "Feature", "properties": { "FID": 270, "LAD24CD": "E09000007", "LAD24NM": "Camden", "LAD24NMW": " ", "BNG_E": 527491, "BNG_N": 184283, "LONG": -0.16291, "LAT": 51.54305, "GlobalID": "b377b1db-f820-4797-897c-dd123af76974" }, "geometry": { "type": "Polygon", "coordinates": [ [ [ -0.14239561120072, 51.569106002885 ], [ -0.122563726204788, 51.530753114339703 ], [ -0.105290341558648, 51.518554858750797 ], [ -0.111567824442113, 51.515335030001701 ], [ -0.129335251259481, 51.5134727060722 ], [ -0.152684835329384, 51.537510753996699 ], [ -0.191467608561554, 51.536292359070003 ], [ -0.213486677002519, 51.555190932925498 ], [ -0.17123183297214, 51.572418251471703 ], [ -0.14239561120072, 51.569106002885 ] ] ] } },
{ "type": "Feature", "properties": { "FID": 271, "LAD24CD": "E09000008", "LAD24NM": "Croydon", "LAD24NMW": " ", "BNG_E": 533922, "BNG_N": 164745, "LONG": -0.07761, "LAT": 51.36598, "GlobalID": "793e8c64-9483-4c95-9094-e8a3cc11b5d1" }, "geometry": { "type": "Polygon", "coordinates": [ [ [ -0.078557367172468, 51.419874212229701 ], [ -0.068201525556868, 51.403488310827001 ], [ -0.036523498687031, 51.388431537429497 ], [ -0.036902864195052, 51.377016904137101 ], [ -0.026766570121141, 51.379375935417201 ], [ 0.002255311924003, 51.329134835034303 ], [ -0.03792008544979, 51.338724744213103 ], [ -0.051307224761096, 51.322452277476501 ], [ -0.07891302057719, 51.319769939649902 ], [ -0.09122374186729, 51.301475229977498 ], [ -0.124301850029936, 51.286790404081401 ], [ -0.137245888383678, 51.300763843059201 ], [ -0.155317700345265, 51.301274394666798 ], [ -0.156523624561657, 51.321485287172102 ], [ -0.14557670392873, 51.323492954998301 ], [ -0.144576133845834, 51.342087666098003 ], [ -0.116842029977448, 51.345762860010197 ], [ -0.134321993903791, 51.390847067097802 ], [ -0.124139637510634, 51.397609568876597 ], [ -0.127724902236922, 51.412316331520998 ], [ -0.112631773723551, 51.4232442695196 ], [ -0.078557367172468, 51.419874212229701 ] ] ] } },
{ "type": "Feature", "properties": { "FID": 272, "LAD24CD": "E09000009", "LAD24NM": "Ealing", "LAD24NMW": " ", "BNG_E": 517055, "BNG_N": 181959, "LONG": -0.3141, "LAT": 51.52442, "GlobalID": "056c7265-5787-484d-a4be-6a13cd756f43" }, "geometry": { "type": "Polygon", "coordinates": [ [ [ -0.246281570983423, 51.532737510347197 ], [ -0.253040909966186, 51.5014223351426 ], [ -0.267676633366511, 51.493919252122502 ], [ -0.280772402092, 51.502847528293998 ], [ -0.294015372580519, 51.501559327070098 ], [ -0.311911168808834, 51.491971458578 ], [ -0.350619148399036, 51.499106657996798 ], [ -0.371851047191365, 51.490476155831502 ], [ -0.406918399587474, 51.4996663980547 ], [ -0.3761902207783, 51.528817331582097 ], [ -0.419452371528133, 51.540332326404197 ], [ -0.395285532006663, 51.542551633739599 ], [ -0.398706173814887, 51.547897360632803 ], [ -0.377843376019978, 51.554977064428499 ], [ -0.335555531666752, 51.556556900042999 ], [ -0.307735039440403, 51.545878815828601 ], [ -0.307453582279767, 51.5330870588732 ], [ -0.282457376588103, 51.538648676889501 ], [ -0.284241047709167, 51.5289125958301 ], [ -0.246281570983423, 51.532737510347197 ] ] ] } },
{ "type": "Feature", "properties": { "FID": 273, "LAD24CD": "E09000010", "LAD24NM": "Enfield", "LAD24NMW": " ", "BNG_E": 532831, "BNG_N": 196198, "LONG": -0.08144, "LAT": 51.64889, "GlobalID": "df203a8b-9b20-40f1-90f7-e42b5fc7803f" }, "geometry": { "type": "Polygon", "coordinates": [ [ [ -0.011918675972722, 51.680877815578803 ], [ -0.012259687054712, 51.6462286971895 ], [ -0.041390716789704, 51.605646785333803 ], [ -0.13870599645949, 51.610185787169598 ], [ -0.144495116086128, 51.615509012540002 ], [ -0.129093931888576, 51.632265448949703 ], [ -0.154731838818758, 51.655545145184902 ], [ -0.185893323219588, 51.662845345591798 ], [ -0.181960815257973, 51.668683195615401 ], [ -0.163493271974568, 51.688115079665103 ], [ -0.105779139838692, 51.691875645117896 ], [ -0.011918675972722, 51.680877815578803 ] ] ] } },
{ "type": "Feature", "properties": { "FID": 274, "LAD24CD": "E09000011", "LAD24NM": "Greenwich", "LAD24NMW": " ", "BNG_E": 542507, "BNG_N": 175878, "LONG": 0.050093, "LAT": 51.46394, "GlobalID": "ae897147-8870-49ae-99a5-0fd1f778b4bb" }, "geometry": { "type": "MultiPolygon", "coordinates": [ [ [ [ -0.01708188383685, 51.480404868201703 ], [ -0.01956450173254, 51.4781649493289 ], [ -0.022015674436631, 51.4836720989273 ], [ -0.01708188383685, 51.480404868201703 ] ] ], [ [ [ -0.008484307377134, 51.487088897811198 ], [ -0.008561369478834, 51.486575580693099 ], [ -0.010687503007873, 51.487046761239498 ], [ -0.008484307377134, 51.487088897811198 ] ] ], [ [ [ 0.118676522859303, 51.511316598781796 ], [ 0.124191087369442, 51.476849019469697 ], [ 0.098244270803385, 51.475452421210498 ], [ 0.08231307420876, 51.466641315446203 ], [ 0.087426753747751, 51.443284343343599 ], [ 0.075360212261282, 51.431986652216402 ], [ 0.061705411141948, 51.423700370848103 ], [ 0.02937881550058, 51.441705419749198 ], [ 0.009962165688925, 51.459395038133003 ], [ 0.017962965802973, 51.473830034270698 ], [ -0.015061544957288, 51.4680444328338 ], [ -0.01915237721856, 51.477238879369501 ], [ 0.001970480426538, 51.488510927351498 ], [ 0.00148935785163, 51.501847910189902 ], [ 0.00140327036507, 51.5042338242733 ], [ 0.002002542077534, 51.5043596274271 ], [ 0.006900539940926, 51.501755378249399 ], [ 0.015465596038428, 51.497200267945303 ], [ 0.021572335482926, 51.493951644463102 ], [ 0.058030554201814, 51.494048584149397 ], [ 0.076677470975649, 51.495908102777797 ], [ 0.082016154670327, 51.500445315948802 ], [ 0.090811680098821, 51.507918223564801 ], [ 0.093560946446962, 51.509149560945303 ], [ 0.118676522859303, 51.511316598781796 ] ] ] ] } },
{ "type": "Feature", "properties": { "FID": 275, "LAD24CD": "E09000012", "LAD24NM": "Hackney", "LAD24NMW": " ", "BNG_E": 534560, "BNG_N": 185787, "LONG": -0.06045, "LAT": 51.55492, "GlobalID": "ddb44c04-5c7a-40d3-b0f9-9813de43bee4" }, "geometry": { "type": "Polygon", "coordinates": [ [ [ -0.017174335251558, 51.551577284638199 ], [ -0.016549676137034, 51.543329867701402 ], [ -0.062434445954616, 51.535532498455702 ], [ -0.078529105704302, 51.521511918880101 ], [ -0.085232645096576, 51.520348397184499 ], [ -0.097032336919264, 51.533003340336599 ], [ -0.076559086972201, 51.547839502343798 ], [ -0.104373934561655, 51.564766658503103 ], [ -0.097741752628111, 51.5736234700734 ], [ -0.061158572066501, 51.577786037115601 ], [ -0.047079099058099, 51.562592111405998 ], [ -0.028390534944039, 51.561020250955401 ], [ -0.017174335251558, 51.551577284638199 ] ] ] } },
{ "type": "Feature", "properties": { "FID": 276, "LAD24CD": "E09000013", "LAD24NM": "Hammersmith and Fulham", "LAD24NMW": " ", "BNG_E": 523867, "BNG_N": 177993, "LONG": -0.21735, "LAT": 51.48733, "GlobalID": "934e514a-dad5-47ce-96c0-0438d0e05576" }, "geometry": { "type": "Polygon", "coordinates": [ [ [ -0.228440758153743, 51.530319157203301 ], [ -0.214177219911025, 51.500834183940803 ], [ -0.177749617256423, 51.4775403719498 ], [ -0.190529144136711, 51.464275081342599 ], [ -0.221737464202912, 51.472332314836699 ], [ -0.229959225072846, 51.487928652043102 ], [ -0.243366811301174, 51.487891726690499 ], [ -0.253040909966186, 51.5014223351426 ], [ -0.246281570983423, 51.532737510347197 ], [ -0.228440758153743, 51.530319157203301 ] ] ] } },
{ "type": "Feature", "properties": { "FID": 277, "LAD24CD": "E09000014", "LAD24NM": "Haringey", "LAD24NMW": " ", "BNG_E": 531260, "BNG_N": 189349, "LONG": -0.1067, "LAT": 51.58771, "GlobalID": "144baeed-734c-4e2b-856c-0831a2e0e5bc" }, "geometry": { "type": "Polygon", "coordinates": [ [ [ -0.041390716789704, 51.605646785333803 ], [ -0.061158572066501, 51.577786037115601 ], [ -0.097741752628111, 51.5736234700734 ], [ -0.104373934561655, 51.564766658503103 ], [ -0.119534587269282, 51.575506766244203 ], [ -0.14239561120072, 51.569106002885 ], [ -0.17123183297214, 51.572418251471703 ], [ -0.157130981863992, 51.586191395252001 ], [ -0.156483326473497, 51.605324577965902 ], [ -0.151330701481231, 51.597471099965503 ], [ -0.13870599645949, 51.610185787169598 ], [ -0.041390716789704, 51.605646785333803 ] ] ] } },
{ "type": "Feature", "properties": { "FID": 278, "LAD24CD": "E09000015", "LAD24NM": "Harrow", "LAD24NMW": " ", "BNG_E": 515359, "BNG_N": 189736, "LONG": -0.33598, "LAT": 51.59467, "GlobalID": "2cac0b9b-65af-4546-8781-a601f2a01693" }, "geometry": { "type": "Polygon", "coordinates": [ [ [ -0.304449971011893, 51.636348720165898 ], [ -0.267113115479641, 51.600371968584199 ], [ -0.290405901610672, 51.593543801763197 ], [ -0.282465247610045, 51.585034967364003 ], [ -0.304696795432772, 51.587052553308901 ], [ -0.326642146067183, 51.578775147283302 ], [ -0.322148244821014, 51.569677057154699 ], [ -0.335555531666752, 51.556556900042999 ], [ -0.377843376019978, 51.554977064428499 ], [ -0.404003977890064, 51.613183973542597 ], [ -0.362621257698241, 51.623504817498002 ], [ -0.316672244970353, 51.640535567568101 ], [ -0.304449971011893, 51.636348720165898 ] ] ] } },
{ "type": "Feature", "properties": { "FID": 279, "LAD24CD": "E09000016", "LAD24NM": "Havering", "LAD24NMW": " ", "BNG_E": 555032, "BNG_N": 187514, "LONG": 0.235368, "LAT": 51.56519, "GlobalID": "01f38310-a29c-4fce-b1dd-758fc4c3cba0" }, "geometry": { "type": "MultiPolygon", "coordinates": [ [ [ [ 0.164694931244556, 51.504452526146103 ], [ 0.168813601248937, 51.499362146031203 ], [ 0.162513688689931, 51.504796291456501 ], [ 0.164694931244556, 51.504452526146103 ] ] ], [ [ [ 0.269866485133475, 51.599554450730103 ], [ 0.290289733913774, 51.5642993932384 ], [ 0.313035079940716, 51.565818132803201 ], [ 0.334024218329939, 51.540503804685102 ], [ 0.265347272043956, 51.532150265979602 ], [ 0.263682923643184, 51.517869793022001 ], [ 0.253834318187163, 51.517885872501701 ], [ 0.248964774122808, 51.528674029746298 ], [ 0.23717600954358, 51.519334434409203 ], [ 0.241919319161816, 51.507960127814002 ], [ 0.226597286350539, 51.506563243634503 ], [ 0.229965349544136, 51.499365919635203 ], [ 0.214156929096117, 51.496039610799102 ], [ 0.211792634982751, 51.4897529936162 ], [ 0.210575775391054, 51.490247754648799 ], [ 0.187657973831843, 51.487885444387402 ], [ 0.182018252178163, 51.498627643076397 ], [ 0.178514728636713, 51.505298430856001 ], [ 0.16011671259232, 51.511780958014299 ], [ 0.190222134044087, 51.552652397052299 ], [ 0.185180463309676, 51.565513082632002 ], [ 0.161893735700278, 51.561616873806102 ], [ 0.146703647684621, 51.568796634228498 ], [ 0.14820590165784, 51.598968465163601 ], [ 0.138184235471144, 51.623545396974102 ], [ 0.200311572516926, 51.624935757614601 ], [ 0.224087730411796, 51.631737762367798 ], [ 0.252194314453482, 51.617769405809497 ], [ 0.26456196557058, 51.608320661792803 ], [ 0.254008700235285, 51.601598201685398 ], [ 0.269866485133475, 51.599554450730103 ] ] ] ] } },
{ "type": "Feature", "properties": { "FID": 280, "LAD24CD": "E09000017", "LAD24NM": "Hillingdon", "LAD24NMW": " ", "BNG_E": 508168, "BNG_N": 183121, "LONG": -0.44179, "LAT": 51.53664, "GlobalID": "592256b5-4406-4095-8778-11affad03cbc" }, "geometry": { "type": "Polygon", "coordinates": [ [ [ -0.404003977890064, 51.613183973542597 ], [ -0.377843376019978, 51.554977064428499 ], [ -0.398706173814887, 51.547897360632803 ], [ -0.395285532006663, 51.542551633739599 ], [ -0.419452371528133, 51.540332326404197 ], [ -0.3761902207783, 51.528817331582097 ], [ -0.406918399587474, 51.4996663980547 ], [ -0.41691849392387, 51.482476481186502 ], [ -0.411131663867979, 51.469887514772097 ], [ -0.443949638873137, 51.4532905922729 ], [ -0.458723754309907, 51.456341740939799 ], [ -0.509807321692741, 51.4692072646179 ], [ -0.490024731164425, 51.4947476352948 ], [ -0.4832235109622, 51.507084912576303 ], [ -0.495487343928382, 51.538545230935 ], [ -0.476620654293635, 51.559188837813402 ], [ -0.500595886737316, 51.599689899563799 ], [ -0.496828509147855, 51.6317238414399 ], [ -0.457130755473738, 51.612293889987697 ], [ -0.440575301279442, 51.620073239301298 ], [ -0.404003977890064, 51.613183973542597 ] ] ] } },
{ "type": "Feature", "properties": { "FID": 281, "LAD24CD": "E09000018", "LAD24NM": "Hounslow", "LAD24NMW": " ", "BNG_E": 512737, "BNG_N": 174959, "LONG": -0.37855, "LAT": 51.46238, "GlobalID": "21098592-aa3e-4864-9ff5-5313ebdf34e0" }, "geometry": { "type": "Polygon", "coordinates": [ [ [ -0.253040909966186, 51.5014223351426 ], [ -0.243366811301174, 51.487891726690499 ], [ -0.257492822103567, 51.471205525493197 ], [ -0.292096182057123, 51.487281560359897 ], [ -0.326934014640788, 51.457010899903999 ], [ -0.373024056271843, 51.4574730212235 ], [ -0.387815795898182, 51.449438456435303 ], [ -0.366823470215651, 51.441623327220803 ], [ -0.39131707100993, 51.422315412796003 ], [ -0.45646755928571, 51.438106680605003 ], [ -0.458723754309907, 51.456341740939799 ], [ -0.443949638873137, 51.4532905922729 ], [ -0.411131663867979, 51.469887514772097 ], [ -0.41691849392387, 51.482476481186502 ], [ -0.406918399587474, 51.4996663980547 ], [ -0.371851047191365, 51.490476155831502 ], [ -0.350619148399036, 51.499106657996798 ], [ -0.311911168808834, 51.491971458578 ], [ -0.294015372580519, 51.501559327070098 ], [ -0.280772402092, 51.502847528293998 ], [ -0.267676633366511, 51.493919252122502 ], [ -0.253040909966186, 51.5014223351426 ] ] ] } },
{ "type": "Feature", "properties": { "FID": 282, "LAD24CD": "E09000019", "LAD24NM": "Islington", "LAD24NMW": " ", "BNG_E": 531160, "BNG_N": 184645, "LONG": -0.10989, "LAT": 51.54546, "GlobalID": "794e44c6-198c-4f03-a0b7-5955e2a49301" }, "geometry": { "type": "Polygon", "coordinates": [ [ [ -0.104373934561655, 51.564766658503103 ], [ -0.076559086972201, 51.547839502343798 ], [ -0.097032336919264, 51.533003340336599 ], [ -0.085232645096576, 51.520348397184499 ], [ -0.105290341558648, 51.518554858750797 ], [ -0.122563726204788, 51.530753114339703 ], [ -0.14239561120072, 51.569106002885 ], [ -0.119534587269282, 51.575506766244203 ], [ -0.104373934561655, 51.564766658503103 ] ] ] } },
{ "type": "Feature", "properties": { "FID": 283, "LAD24CD": "E09000020", "LAD24NM": "Kensington and Chelsea", "LAD24NMW": " ", "BNG_E": 525756, "BNG_N": 179054, "LONG": -0.18978, "LAT": 51.49645, "GlobalID": "92040876-14dc-4889-8664-6349f736cb44" }, "geometry": { "type": "Polygon", "coordinates": [ [ [ -0.216020723983129, 51.527920361167503 ], [ -0.179521115667993, 51.497766114586803 ], [ -0.158457848304668, 51.502226197814799 ], [ -0.149806087718761, 51.484545996631503 ], [ -0.177749617256423, 51.4775403719498 ], [ -0.214177219911025, 51.500834183940803 ], [ -0.228440758153743, 51.530319157203301 ], [ -0.216020723983129, 51.527920361167503 ] ] ] } },
{ "type": "Feature", "properties": { "FID": 284, "LAD24CD": "E09000021", "LAD24NM": "Kingston upon Thames", "LAD24NMW": " ", "BNG_E": 519508, "BNG_N": 167389, "LONG": -0.28367, "LAT": 51.39296, "GlobalID": "ad54d18f-1f59-475c-a33c-9008a0cebd10" }, "geometry": { "type": "Polygon", "coordinates": [ [ [ -0.251085089413751, 51.432557792437201 ], [ -0.239691091190174, 51.389273933248099 ], [ -0.245027866580531, 51.380059156388398 ], [ -0.260996427671818, 51.3795939518848 ], [ -0.288469327282705, 51.362127888058502 ], [ -0.30618917299884, 51.335075565623903 ], [ -0.330655551869037, 51.329009639033998 ], [ -0.330510146371957, 51.348419436064603 ], [ -0.307365443633207, 51.378383546008202 ], [ -0.317697879461912, 51.393667080251902 ], [ -0.308788746091744, 51.401916883695598 ], [ -0.310650913997973, 51.4322095278795 ], [ -0.290616410459767, 51.428990165249303 ], [ -0.286559992341689, 51.420185493690099 ], [ -0.254066366518792, 51.4372878651698 ], [ -0.251085089413751, 51.432557792437201 ] ] ] } },
{ "type": "Feature", "properties": { "FID": 285, "LAD24CD": "E09000022", "LAD24NM": "Lambeth", "LAD24NMW": " ", "BNG_E": 531118, "BNG_N": 175629, "LONG": -0.11385, "LAT": 51.46445, "GlobalID": "abd1a93e-2eaf-4af1-8638-139ba9630866" }, "geometry": { "type": "Polygon", "coordinates": [ [ [ -0.078287681880069, 51.4206047143525 ], [ -0.078557367172468, 51.419874212229701 ], [ -0.112631773723551, 51.4232442695196 ], [ -0.127724902236922, 51.412316331520998 ], [ -0.148064535784428, 51.412870113391001 ], [ -0.140358848161646, 51.419263704503997 ], [ -0.135888414709844, 51.441975893414998 ], [ -0.143610577448564, 51.4418389626398 ], [ -0.151211614592545, 51.465861156144598 ], [ -0.129471243203922, 51.485890943891903 ], [ -0.111444375072681, 51.509774699574699 ], [ -0.109174000436823, 51.509874369998002 ], [ -0.108224646364217, 51.480306789191197 ], [ -0.090039492650524, 51.466065595170797 ], [ -0.101383006818995, 51.451923978400202 ], [ -0.078287681880069, 51.4206047143525 ] ] ] } },
{ "type": "Feature", "properties": { "FID": 286, "LAD24CD": "E09000023", "LAD24NM": "Lewisham", "LAD24NMW": " ", "BNG_E": 537888, "BNG_N": 173343, "LONG": -0.01734, "LAT": 51.4423, "GlobalID": "8bfce11c-0d0b-45b7-a372-ddc28bc53707" }, "geometry": { "type": "Polygon", "coordinates": [ [ [ -0.022015674436631, 51.4836720989273 ], [ -0.01956450173254, 51.4781649493289 ], [ -0.02267493896056, 51.475358228905499 ], [ -0.01915237721856, 51.477238879369501 ], [ -0.015061544957288, 51.4680444328338 ], [ 0.017962965802973, 51.473830034270698 ], [ 0.009962165688925, 51.459395038133003 ], [ 0.02937881550058, 51.441705419749198 ], [ 0.036276023931694, 51.422418461914098 ], [ 0.025458977328269, 51.4289732426829 ], [ -0.010312080263417, 51.413577794038602 ], [ -0.030215896380044, 51.425682790595097 ], [ -0.073907270099848, 51.4262129239712 ], [ -0.061801430646336, 51.447786578021102 ], [ -0.041643327195896, 51.455004976336703 ], [ -0.053971967947754, 51.487938386745 ], [ -0.032295456068025, 51.492975200277698 ], [ -0.024829254355396, 51.485534991975904 ], [ -0.022015674436631, 51.4836720989273 ] ] ] } },
{ "type": "Feature", "properties": { "FID": 287, "LAD24CD": "E09000024", "LAD24NM": "Merton", "LAD24NMW": " ", "BNG_E": 526068, "BNG_N": 169508, "LONG": -0.18868, "LAT": 51.41058, "GlobalID": "8375c849-5b9d-477f-81d0-df5441d29e94" }, "geometry": { "type": "Polygon", "coordinates": [ [ [ -0.140358848161646, 51.419263704503997 ], [ -0.148064535784428, 51.412870113391001 ], [ -0.127724902236922, 51.412316331520998 ], [ -0.124139637510634, 51.397609568876597 ], [ -0.134321993903791, 51.390847067097802 ], [ -0.165214785175961, 51.387971714747202 ], [ -0.174812978456833, 51.393412946794697 ], [ -0.188399006002823, 51.385434281521199 ], [ -0.209783879622302, 51.388299756073103 ], [ -0.218080128415406, 51.380182375518999 ], [ -0.239691091190174, 51.389273933248099 ], [ -0.251085089413751, 51.432557792437201 ], [ -0.190026527777626, 51.441464584942501 ], [ -0.181939169287309, 51.424731272348197 ], [ -0.140358848161646, 51.419263704503997 ] ] ] } },
{ "type": "Feature", "properties": { "FID": 288, "LAD24CD": "E09000025", "LAD24NM": "Newham", "LAD24NMW": " ", "BNG_E": 540713, "BNG_N": 183346, "LONG": 0.027261, "LAT": 51.53149, "GlobalID": "5785caf6-9ca1-4351-bbad-312e17f9b8eb" }, "geometry": { "type": "MultiPolygon", "coordinates": [ [ [ [ 0.093560946446962, 51.509149560945303 ], [ 0.090811680098821, 51.507918223564801 ], [ 0.092114129659729, 51.5090245499023 ], [ 0.093560946446962, 51.509149560945303 ] ] ], [ [ [ 0.050344992489226, 51.564021771228497 ], [ 0.068361694633867, 51.544390390102798 ], [ 0.07274547622173, 51.529274737793202 ], [ 0.092601548169419, 51.525697997244698 ], [ 0.098120894043972, 51.514947808650497 ], [ 0.065781675093208, 51.500732723625703 ], [ 0.060385612446722, 51.498359129677397 ], [ 0.020249919441287, 51.499419095150799 ], [ 0.017577333724112, 51.501572155156303 ], [ 0.015724804355067, 51.503064431740803 ], [ 0.009187310196193, 51.508329630972703 ], [ 0.008127061402262, 51.5081033461922 ], [ 0.005703594735044, 51.507586069322898 ], [ -0.021129061565773, 51.5365081698437 ], [ -0.016549676137034, 51.543329867701402 ], [ -0.017174335251558, 51.551577284638199 ], [ 0.020474204165771, 51.556128125992799 ], [ 0.046272611011731, 51.554829940686602 ], [ 0.050344992489226, 51.564021771228497 ] ] ] ] } },
{ "type": "Feature", "properties": { "FID": 289, "LAD24CD": "E09000026", "LAD24NM": "Redbridge", "LAD24NMW": " ", "BNG_E": 543512, "BNG_N": 189477, "LONG": 0.070085, "LAT": 51.58588, "GlobalID": "c271eb38-95ca-4c94-9b8f-8dd0452fbdfe" }, "geometry": { "type": "Polygon", "coordinates": [ [ [ 0.138184235471144, 51.623545396974102 ], [ 0.14820590165784, 51.598968465163601 ], [ 0.126386612488677, 51.586725221056398 ], [ 0.131578541181193, 51.5718243720301 ], [ 0.118901016628217, 51.557370991021202 ], [ 0.093519764473527, 51.545857894368403 ], [ 0.068361694633867, 51.544390390102798 ], [ 0.050344992489226, 51.564021771228497 ], [ 0.046272611011731, 51.554829940686602 ], [ 0.020474204165771, 51.556128125992799 ], [ 0.012095900506266, 51.592690501660599 ], [ 0.021443771585101, 51.6118028978794 ], [ 0.00869444540429, 51.619069902370498 ], [ 0.021819035344359, 51.628832787028102 ], [ 0.072867372178107, 51.604665523330098 ], [ 0.138184235471144, 51.623545396974102 ] ] ] } },
{ "type": "Feature", "properties": { "FID": 290, "LAD24CD": "E09000027", "LAD24NM": "Richmond upon Thames", "LAD24NMW": " ", "BNG_E": 519005, "BNG_N": 172650, "LONG": -0.28914, "LAT": 51.44035, "GlobalID": "6ea29b04-ee42-41b6-b0b7-d004039e3064" }, "geometry": { "type": "Polygon", "coordinates": [ [ [ -0.221737464202912, 51.472332314836699 ], [ -0.232733298874365, 51.472510759636698 ], [ -0.233290023158623, 51.4639717465339 ], [ -0.256187822981795, 51.462834075687098 ], [ -0.259111198831886, 51.454953489870903 ], [ -0.24159865877434, 51.443117986003898 ], [ -0.254066366518792, 51.4372878651698 ], [ -0.286559992341689, 51.420185493690099 ], [ -0.290616410459767, 51.428990165249303 ], [ -0.310650913997973, 51.4322095278795 ], [ -0.308788746091744, 51.401916883695598 ], [ -0.317697879461912, 51.393667080251902 ], [ -0.327817849624804, 51.3918371426333 ], [ -0.359139332144209, 51.411903161336703 ], [ -0.383350026681253, 51.408538296008601 ], [ -0.39131707100993, 51.422315412796003 ], [ -0.366823470215651, 51.441623327220803 ], [ -0.387815795898182, 51.449438456435303 ], [ -0.373024056271843, 51.4574730212235 ], [ -0.326934014640788, 51.457010899903999 ], [ -0.292096182057123, 51.487281560359897 ], [ -0.257492822103567, 51.471205525493197 ], [ -0.243366811301174, 51.487891726690499 ], [ -0.229959225072846, 51.487928652043102 ], [ -0.221737464202912, 51.472332314836699 ] ] ] } },
{ "type": "Feature", "properties": { "FID": 291, "LAD24CD": "E09000028", "LAD24NM": "Southwark", "LAD24NMW": " ", "BNG_E": 533945, "BNG_N": 175869, "LONG": -0.07308, "LAT": 51.46594, "GlobalID": "ad06e62b-15e4-4491-b28d-ac6b9828189f" }, "geometry": { "type": "Polygon", "coordinates": [ [ [ -0.080182948054445, 51.506872265864097 ], [ -0.072975928236025, 51.505027588342202 ], [ -0.068368751104445, 51.5030201421622 ], [ -0.062953951259199, 51.500660379423501 ], [ -0.053873462638143, 51.502780454754799 ], [ -0.035889674737337, 51.5069765962959 ], [ -0.03475025029599, 51.502461011028302 ], [ -0.03237822923314, 51.493057669337801 ], [ -0.032295456068025, 51.492975200277698 ], [ -0.053971967947754, 51.487938386745 ], [ -0.041643327195896, 51.455004976336703 ], [ -0.061801430646336, 51.447786578021102 ], [ -0.073907270099848, 51.4262129239712 ], [ -0.078287681880069, 51.4206047143525 ], [ -0.101383006818995, 51.451923978400202 ], [ -0.090039492650524, 51.466065595170797 ], [ -0.108224646364217, 51.480306789191197 ], [ -0.109174000436823, 51.509874369998002 ], [ -0.080182948054445, 51.506872265864097 ] ] ] } },
{ "type": "Feature", "properties": { "FID": 292, "LAD24CD": "E09000029", "LAD24NM": "Sutton", "LAD24NMW": " ", "BNG_E": 527357, "BNG_N": 163639, "LONG": -0.17226, "LAT": 51.35755, "GlobalID": "d48bb4f3-8ea0-429f-ae40-d207a13abcce" }, "geometry": { "type": "Polygon", "coordinates": [ [ [ -0.134321993903791, 51.390847067097802 ], [ -0.116842029977448, 51.345762860010197 ], [ -0.144576133845834, 51.342087666098003 ], [ -0.14557670392873, 51.323492954998301 ], [ -0.156523624561657, 51.321485287172102 ], [ -0.197319340394251, 51.343595160786599 ], [ -0.220841625332819, 51.329801971607203 ], [ -0.229822682346971, 51.336522805485401 ], [ -0.217264425534208, 51.343387091722001 ], [ -0.222736428311044, 51.3570860732802 ], [ -0.245382434157475, 51.366889295247603 ], [ -0.245027866580531, 51.380059156388398 ], [ -0.239691091190174, 51.389273933248099 ], [ -0.218080128415406, 51.380182375518999 ], [ -0.209783879622302, 51.388299756073103 ], [ -0.188399006002823, 51.385434281521199 ], [ -0.174812978456833, 51.393412946794697 ], [ -0.165214785175961, 51.387971714747202 ], [ -0.134321993903791, 51.390847067097802 ] ] ] } },
{ "type": "Feature", "properties": { "FID": 293, "LAD24CD": "E09000030", "LAD24NM": "Tower Hamlets", "LAD24NMW": " ", "BNG_E": 536340, "BNG_N": 181452, "LONG": -0.03647, "LAT": 51.51554, "GlobalID": "99143da5-4747-474e-af05-10cc8830aa4e" }, "geometry": { "type": "MultiPolygon", "coordinates": [ [ [ [ 0.002002542077534, 51.5043596274271 ], [ 0.00140327036507, 51.5042338242733 ], [ 0.001386920906859, 51.504686917515002 ], [ 0.002002542077534, 51.5043596274271 ] ] ], [ [ [ -0.021129061565773, 51.5365081698437 ], [ 0.005703594735044, 51.507586069322898 ], [ -0.005773790655895, 51.505135404231901 ], [ -0.006247927438962, 51.501979760438203 ], [ -0.008484307377134, 51.487088897811198 ], [ -0.010687503007873, 51.487046761239498 ], [ -0.025374375946683, 51.490300320261497 ], [ -0.028276719154752, 51.502352077854503 ], [ -0.02985621142275, 51.508908206711901 ], [ -0.045493420657086, 51.509394935391299 ], [ -0.059620458879845, 51.502875735522203 ], [ -0.059694058109782, 51.502841762452398 ], [ -0.059843036375227, 51.502879417244401 ], [ -0.079369188957907, 51.507812691078897 ], [ -0.072975928236025, 51.505027588342202 ], [ -0.080182948054445, 51.506872265864097 ], [ -0.078529105704302, 51.521511918880101 ], [ -0.062434445954616, 51.535532498455702 ], [ -0.016549676137034, 51.543329867701402 ], [ -0.021129061565773, 51.5365081698437 ] ] ] ] } },
{ "type": "Feature", "properties": { "FID": 294, "LAD24CD": "E09000031", "LAD24NM": "Waltham Forest", "LAD24NMW": " ", "BNG_E": 537328, "BNG_N": 190278, "LONG": -0.0188, "LAT": 51.59461, "GlobalID": "8a040c8f-b07b-4c79-902f-249321220184" }, "geometry": { "type": "Polygon", "coordinates": [ [ [ 0.021819035344359, 51.628832787028102 ], [ 0.00869444540429, 51.619069902370498 ], [ 0.021443771585101, 51.6118028978794 ], [ 0.012095900506266, 51.592690501660599 ], [ 0.020474204165771, 51.556128125992799 ], [ -0.017174335251558, 51.551577284638199 ], [ -0.028390534944039, 51.561020250955401 ], [ -0.047079099058099, 51.562592111405998 ], [ -0.061158572066501, 51.577786037115601 ], [ -0.041390716789704, 51.605646785333803 ], [ -0.012259687054712, 51.6462286971895 ], [ 0.022719541696959, 51.641115493802602 ], [ 0.021819035344359, 51.628832787028102 ] ] ] } },
{ "type": "Feature", "properties": { "FID": 295, "LAD24CD": "E09000032", "LAD24NM": "Wandsworth", "LAD24NMW": " ", "BNG_E": 525152, "BNG_N": 174138, "LONG": -0.20021, "LAT": 51.4524, "GlobalID": "258cac5c-9cec-4fc1-b6c0-16948e8b9593" }, "geometry": { "type": "Polygon", "coordinates": [ [ [ -0.140358848161646, 51.419263704503997 ], [ -0.181939169287309, 51.424731272348197 ], [ -0.190026527777626, 51.441464584942501 ], [ -0.251085089413751, 51.432557792437201 ], [ -0.254066366518792, 51.4372878651698 ], [ -0.24159865877434, 51.443117986003898 ], [ -0.259111198831886, 51.454953489870903 ], [ -0.256187822981795, 51.462834075687098 ], [ -0.233290023158623, 51.4639717465339 ], [ -0.232733298874365, 51.472510759636698 ], [ -0.221737464202912, 51.472332314836699 ], [ -0.190529144136711, 51.464275081342599 ], [ -0.177749617256423, 51.4775403719498 ], [ -0.149806087718761, 51.484545996631503 ], [ -0.129471243203922, 51.485890943891903 ], [ -0.151211614592545, 51.465861156144598 ], [ -0.143610577448564, 51.4418389626398 ], [ -0.135888414709844, 51.441975893414998 ], [ -0.140358848161646, 51.419263704503997 ] ] ] } },
{ "type": "Feature", "properties": { "FID": 296, "LAD24CD": "E09000033", "LAD24NM": "Westminster", "LAD24NMW": " ", "BNG_E": 528268, "BNG_N": 180871, "LONG": -0.15295, "LAT": 51.51221, "GlobalID": "2f1e059b-7eed-4e9b-8b68-895fb226734b" }, "geometry": { "type": "Polygon", "coordinates": [ [ [ -0.111567824442113, 51.515335030001701 ], [ -0.111444375072681, 51.509774699574699 ], [ -0.129471243203922, 51.485890943891903 ], [ -0.149806087718761, 51.484545996631503 ], [ -0.158457848304668, 51.502226197814799 ], [ -0.179521115667993, 51.497766114586803 ], [ -0.216020723983129, 51.527920361167503 ], [ -0.205142405490973, 51.5329559016986 ], [ -0.196479321959949, 51.527638636562301 ], [ -0.191467608561554, 51.536292359070003 ], [ -0.152684835329384, 51.537510753996699 ], [ -0.129335251259481, 51.5134727060722 ], [ -0.111567824442113, 51.515335030001701 ] ] ] } }
]
}
